NORAD_CAT_ID,OBJECT_NAME,OBJECT_TYPE,EPOCH,MEAN_MOTION,ECCENTRICITY,INCLINATION,RA_OF_ASC_NODE,ARG_OF_PERICENTER,MEAN_ANOMALY,BSTAR,MEAN_MOTION_DOT,MEAN_MOTION_DDOT,TLE_LINE0,TLE_LINE1,TLE_LINE2,SEMIMAJOR_AXIS,PERIOD,APOGEE,PERIGEE,DECAYED
55925.0,STARLINK-5922,PAYLOAD,2023-03-22 18:00:00,15.94903197,0.0038869,69.9998,167.7491,162.9735,297.0872,-0.0023394,-0.00976031,0.00029767,0 STARLINK-5922,1 55925U 23037M   23081.75001157 -.00976031  29767-3 -23394-2 0  9996,2 55925  69.9998 167.7491 0038869 162.9735 297.0872 15.94903197  1307,6666.721,90.288,314.499,262.673,0.0
55925.0,STARLINK-5922,PAYLOAD,2023-03-22 22:00:00,15.94602022,0.0037755,70.0,167.2631,163.5568,173.0469,-0.0025211,-0.01029614,0.00032753,0 STARLINK-5922,1 55925U 23037M   23081.91667824 -.01029614  32753-3 -25211-2 0  9999,2 55925  70.0000 167.2631 0037755 163.5568 173.0469 15.94602022  1307,6667.561,90.305,314.599,264.252,0.0
55925.0,STARLINK-5922,PAYLOAD,2023-03-23 01:06:38,15.94553587,0.0035209,69.9983,166.885,163.3185,196.9191,-0.00075555,-0.0030688,3.5844e-05,0 STARLINK-5922,1 55925U 23037M   23082.04627452 -.00306880  35844-4 -75555-3 0  9991,2 55925  69.9983 166.8850 0035209 163.3185 196.9191 15.94553587  1348,6667.696,90.307,313.037,266.084,0.0
55925.0,STARLINK-5922,PAYLOAD,2023-03-23 14:00:01,15.93273101,0.0031106,70.0001,165.3209,165.0029,35.9249,-0.0026356,-0.00979402,0.00029457,0 STARLINK-5922,1 55925U 23037M   23082.58335648 -.00979402  29457-3 -26356-2 0  9995,2 55925  70.0001 165.3209 0031106 165.0029  35.9249 15.93273101  1438,6671.268,90.38,313.884,272.381,0.0
55925.0,STARLINK-5922,PAYLOAD,2023-03-24 17:00:11,15.91067495,0.001777,69.9999,162.0521,174.9461,352.9044,-0.0030258,-0.00971125,0.00028361,0 STARLINK-5922,1 55925U 23037M   23083.70846065 -.00971125  28361-3 -30258-2 0  9993,2 55925  69.9999 162.0521 0017770 174.9461 352.9044 15.91067495  1601,6677.431,90.505,311.162,287.431,0.0
55925.0,STARLINK-5922,PAYLOAD,2023-03-24 22:00:01,15.90685322,0.0016532,70.0001,161.4475,178.0154,102.0163,-0.0032628,-0.01024465,0.00031191,0 STARLINK-5922,1 55925U 23037M   23083.91668981 -.01024465  31191-3 -32628-2 0  9990,2 55925  70.0001 161.4475 0016532 178.0154 102.0163 15.90685322  1305,6678.501,90.527,311.407,289.325,0.0
55925.0,STARLINK-5922,PAYLOAD,2023-03-25 06:00:00,15.90034201,0.001228,70.0,160.4821,188.6715,199.1148,-0.00339,-0.0102402,0.00030967,0 STARLINK-5922,1 55925U 23037M   23084.25001157 -.01024020  30967-3 -33900-2 0  9995,2 55925  70.0000 160.4821 0012280 188.6715 199.1148 15.90034201  1690,6680.324,90.564,310.393,293.986,0.0
55925.0,STARLINK-5922,PAYLOAD,2023-03-25 14:00:01,15.89358617,0.0010222,70.0002,159.5177,200.063,294.7714,-0.0033552,-0.00977891,0.00028249,0 STARLINK-5922,1 55925U 23037M   23084.58334491 -.00977891  28249-3 -33552-2 0  9996,2 55925  70.0002 159.5177 0010222 200.0630 294.7714 15.89358617  1749,6682.217,90.603,310.913,297.251,0.0
55925.0,STARLINK-5922,PAYLOAD,2023-03-25 22:00:00,15.88730386,0.0008536,70.0,158.553,219.9117,21.1716,-0.0036365,-0.01025327,0.0003065,0 STARLINK-5922,1 55925U 23037M   23084.91667824 -.01025327  30650-3 -36365-2 0  9995,2 55925  70.0000 158.5530 0008536 219.9117  21.1716 15.88730386  1798,6683.978,90.638,311.549,300.138,0.0
55925.0,STARLINK-5922,PAYLOAD,2023-03-26 06:00:00,15.88085681,0.0008585,69.9999,157.59,242.9399,103.6157,-0.0038127,-0.01041084,0.00031333,0 STARLINK-5922,1 55925U 23037M   23085.25001157 -.01041084  31333-3 -38127-2 0  9999,2 55925  69.9999 157.5900 0008585 242.9399 103.6157 15.88085681  1857,6685.787,90.675,313.392,301.913,0.0
55925.0,STARLINK-5922,PAYLOAD,2023-03-26 22:00:01,15.8675763,0.0008922,69.9998,155.6668,268.397,286.8378,-0.0038981,-0.00906611,0.0,0 STARLINK-5922,1 55925U 23037M   23085.91668981 -.00906611  00000-0 -38981-2 0  9993,2 55925  69.9998 155.6668 0008922 268.3970 286.8378 15.86757630  1305,6689.517,90.751,317.351,305.414,0.0
55925.0,STARLINK-5922,PAYLOAD,2023-03-27 06:00:00,15.86106021,0.0007608,69.9998,154.7067,269.0299,29.2656,-0.0040129,-0.00903025,0.0,0 STARLINK-5922,1 55925U 23037M   23086.25001157 -.00903025  00000-0 -40129-2 0  9990,2 55925  69.9998 154.7067 0007608 269.0299  29.2656 15.86106021  2019,6691.349,90.788,318.305,308.123,0.0
55925.0,STARLINK-5922,PAYLOAD,2023-03-27 14:00:01,15.85464044,0.0007089,69.9999,153.7473,271.4333,129.2049,-0.0042357,-0.00921408,0.0,0 STARLINK-5922,1 55925U 23037M   23086.58334491 -.00921408  00000-0 -42357-2 0  9996,2 55925  69.9999 153.7473 0007089 271.4333 129.2049 15.85464044  1308,6693.155,90.825,319.765,310.276,0.0
55925.0,STARLINK-5922,PAYLOAD,2023-03-27 22:00:00,15.84823956,0.0004263,70.0003,152.7889,278.2057,223.9904,-0.00446,-0.00936742,0.0,0 STARLINK-5922,1 55925U 23037M   23086.91667824 -.00936742  00000-0 -44600-2 0  9992,2 55925  70.0003 152.7889 0004263 278.2057 223.9904 15.84823956  1308,6694.957,90.862,319.677,313.968,0.0
55925.0,STARLINK-5922,PAYLOAD,2023-03-28 14:00:01,15.83500336,0.0003673,70.0001,150.8746,270.2742,72.7111,-0.0045962,-0.00908624,0.0,0 STARLINK-5922,1 55925U 23037M   23087.58334491 -.00908624  00000-0 -45962-2 0  9997,2 55925  70.0001 150.8746 0003673 270.2742  72.7111 15.83500336  1307,6698.688,90.938,323.013,318.092,0.0
55925.0,STARLINK-5922,PAYLOAD,2023-03-28 22:00:00,15.82857673,0.0003667,69.9997,149.9184,280.1583,162.0401,-0.0048178,-0.00922376,0.0,0 STARLINK-5922,1 55925U 23037M   23087.91667824 -.00922376  00000-0 -48178-2 0  9995,2 55925  69.9997 149.9184 0003667 280.1583 162.0401 15.82857673  1302,6700.501,90.975,324.823,319.909,0.0
55925.0,STARLINK-5922,PAYLOAD,2023-03-29 02:00:01,15.82521035,0.0003686,70.0001,149.4413,277.2706,34.2472,-0.0048078,-0.00907536,0.0,0 STARLINK-5922,1 55925U 23037M   23088.08334491 -.00907536  00000-0 -48078-2 0  9995,2 55925  70.0001 149.4413 0003686 277.2706  34.2472 15.82521035  2305,6701.451,90.994,325.786,320.846,0.0
55925.0,STARLINK-5922,PAYLOAD,2023-03-29 14:00:01,15.81541009,0.0003561,70.0,148.01,270.0232,8.2671,-0.0050147,-0.00904374,0.0,0 STARLINK-5922,1 55925U 23037M   23088.58334491 -.00904374  00000-0 -50147-2 0  9997,2 55925  70.0000 148.0100 0003561 270.0232   8.2671 15.81541009  1302,6704.219,91.05,328.472,323.697,0.0
55925.0,STARLINK-5922,PAYLOAD,2023-03-29 22:00:00,15.80889821,0.0003777,69.9998,147.0571,280.7333,94.4266,-0.0051777,-0.009059,0.0,0 STARLINK-5922,1 55925U 23037M   23088.91667824 -.00905900  00000-0 -51777-2 0  9999,2 55925  69.9998 147.0571 0003777 280.7333  94.4266 15.80889821  1308,6706.06,91.088,330.458,325.392,0.0
55925.0,STARLINK-5922,PAYLOAD,2023-03-30 00:00:00,15.80723474,0.0003637,69.9998,146.8192,280.5792,208.6773,-0.0051849,-0.00900677,0.0,0 STARLINK-5922,1 55925U 23037M   23089.00001157 -.00900677  00000-0 -51849-2 0  9997,2 55925  69.9998 146.8192 0003637 280.5792 208.6773 15.80723474  2445,6706.531,91.098,330.835,325.956,0.0
55925.0,STARLINK-5922,PAYLOAD,2023-03-30 22:00:00,15.78934836,0.0003594,70.0001,144.2034,272.4411,28.6351,-0.0056843,-0.00908823,0.0,0 STARLINK-5922,1 55925U 23037M   23089.91667824 -.00908823  00000-0 -56843-2 0  9996,2 55925  70.0001 144.2034 0003594 272.4411  28.6351 15.78934836  1309,6711.594,91.201,335.872,331.047,0.0
55925.0,STARLINK-5922,PAYLOAD,2023-03-31 22:00:00,15.76978285,0.0003483,70.0001,141.3583,272.2791,307.6728,-0.0062041,-0.0090833,0.0,0 STARLINK-5922,1 55925U 23037M   23090.91667824 -.00908330  00000-0 -62041-2 0  9998,2 55925  70.0001 141.3583 0003483 272.2791 307.6728 15.76978285  2743,6717.145,91.314,341.349,336.67,0.0
55925.0,STARLINK-5922,PAYLOAD,2023-04-01 14:00:01,15.75670507,0.0003646,70.0,139.4662,275.7962,126.1624,-0.0065215,-0.00901845,0.0,0 STARLINK-5922,1 55925U 23037M   23091.58334491 -.00901845  00000-0 -65215-2 0  9993,2 55925  70.0000 139.4662 0003646 275.7962 126.1624 15.75670507  1302,6720.861,91.39,345.176,340.275,0.0
55925.0,STARLINK-5922,PAYLOAD,2023-04-01 22:00:00,15.7501763,0.0003639,70.0002,138.5213,285.0062,206.7823,-0.0067044,-0.00901036,0.0,0 STARLINK-5922,1 55925U 23037M   23091.91667824 -.00901036  00000-0 -67044-2 0  9993,2 55925  70.0002 138.5213 0003639 285.0062 206.7823 15.75017630  2908,6722.718,91.428,347.029,342.137,0.0
55925.0,STARLINK-5922,PAYLOAD,2023-04-02 14:00:01,15.73713875,0.0003653,70.0,136.6351,277.7202,31.3798,-0.0070991,-0.00901457,0.0,0 STARLINK-5922,1 55925U 23037M   23092.58334491 -.00901457  00000-0 -70991-2 0  9990,2 55925  70.0000 136.6351 0003653 277.7202  31.3798 15.73713875  1306,6726.43,91.503,350.753,345.838,0.0
55925.0,STARLINK-5922,PAYLOAD,2023-04-02 22:00:00,15.73058077,0.0003845,70.0003,135.6929,285.9757,110.6089,-0.0072631,-0.00897147,0.0,0 STARLINK-5922,1 55925U 23037M   23092.91667824 -.00897147  00000-0 -72631-2 0  9999,2 55925  70.0003 135.6929 0003845 285.9757 110.6089 15.73058077  1308,6728.3,91.541,352.752,347.578,0.0
55925.0,STARLINK-5922,PAYLOAD,2023-04-03 14:00:01,15.71751641,0.0003884,69.9957,133.807,276.506,292.6906,-0.0075987,-0.00888612,0.0,0 STARLINK-5922,1 55925U 23037M   23093.58334491 -.00888612  00000-0 -75987-2 0  9998,2 55925  69.9957 133.8070 0003884 276.5060 292.6906 15.71751641  1300,6732.028,91.618,356.507,351.278,0.0
55925.0,STARLINK-5922,PAYLOAD,2023-04-03 22:00:00,15.7106826,0.0003708,69.9959,132.8676,268.5623,25.7831,-0.007336,-0.00838444,0.0,0 STARLINK-5922,1 55925U 23037M   23093.91667824 -.00838444  00000-0 -73360-2 0  9995,2 55925  69.9959 132.8676 0003708 268.5623  25.7831 15.71068260  3227,6733.98,91.657,358.342,353.348,0.0
55925.0,STARLINK-5922,PAYLOAD,2023-04-04 14:00:01,15.6990637,0.0003615,69.9966,130.9913,272.5664,189.7181,0.0001987,0.0002373,0.0,0 STARLINK-5922,1 55925U 23037M   23094.58334491  .00023730  00000-0  19870-3 0  9999,2 55925  69.9966 130.9913 0003615 272.5664 189.7181 15.69906370  3325,6737.302,91.725,361.602,356.731,0.0
